#dP2025  2  5  6  0  0.00000000      96 __u+U IGS20 EXT  IAC
## 2352 280800.00000000   900.00000000 60711 0.2500000000000
+   53   G01G02G03G04G05G06G07G08G09G10G11G12G13G14G15G16G17
+        G18G19G20G21G22G23G24G25G26G27G28G29G30G31G32R01R02
+        R03R04R05R07R08R09R11R12R14R15R16R17R18R19R20R21R22
+        R24R26  0  0  0  0  0  0  0  0  0  0  0  0  0  0  0
+          0  0  0  0  0  0  0  0  0  0  0  0  0  0  0  0  0
++         8  7  7  8  8  7  8  7  9  7  7  8  7  7  7  8  7
++         7  7  7  7  7  7  7  6  8  7  7  8  7  7  8  8  9
++         8  8  8  8  8  7  8  8  7  7  8  7  7 10  8 10  8
++         7  9  0  0  0  0  0  0  0  0  0  0  0  0  0  0  0
++         0  0  0  0  0  0  0  0  0  0  0  0  0  0  0  0  0
%c M  cc GPS ccc cccc cccc cccc cccc ccccc ccccc ccccc ccccc
%c cc cc ccc ccc cccc cccc cccc cccc ccccc ccccc ccccc ccccc
%f  0.0000000  0.000000000  0.00000000000  0.000000000000000
%f  0.0000000  0.000000000  0.00000000000  0.000000000000000
%i    0    0    0    0      0      0      0      0         0
%i    0    0    0    0      0      0      0      0         0
/* IAC                                ULTRA-RAPID PREDICTION
/* S/V CLOCKS ARE ALIGNED TO GNSS TIME                      
/* G:C1WC2W R:C1PC2P E:C1XC5X C:C2IC6I J:C1CC2S             
/* PCV:IGS20_2350 OL/AL:FES2004  NONE     YN ORB:CoN CLK:CoN
*  2025 02 06  1  0  0.00000000
PG01  19300.888805  15492.599094  -9651.938133    102.102812
PG02  19336.724539  13364.139667 -12292.963597   -250.019100
PG03  11968.119529  20575.616478  11738.884845    658.979380
PG04  12623.747416   8920.876784  21635.502188    522.977384
PG05  -5607.542558 -25874.805056   1439.932490   -201.139646
PG06  15209.620504  -8641.607694  20098.788294   -168.545215
PG07  25787.132229   6581.862399  -2633.894939    -13.569371
PG08   3332.571135  16894.894252 -20240.677260    475.013749
PG09  19224.165836   -507.577536  18260.135884    556.543980
PG10 -11386.916521  11953.681331 -20485.194032   -306.924622
PG11   3234.076452 -14895.322405  21794.133552   -748.791018
PG12  -9868.660176 -22575.072463   9684.628166   -568.611702
PG13   7268.399913 -18882.393647 -17310.120742    695.644090
PG14  13975.437188  -8109.271983 -20997.331846    593.420595
PG15  -5931.255469 -16464.754033 -20469.881994    260.153881
PG16  -1315.632193  25489.687759   6080.663660    -59.975789
PG17  22668.769918 -12445.701484  -6116.550251    439.637399
PG18 -25582.916216  -4902.609892  -5747.195601   -654.609402
PG19  19840.398960 -16967.443326   3198.787968    594.740132
PG20   1252.063406 -22799.929110  13758.738683    366.513774
PG21  13615.451353  15378.613209 -17062.066813    101.881699
PG22  10616.140941 -16477.578926 -17685.243025    -95.767359
PG23 -15464.199010  -4064.714910 -21205.325096    418.084000
PG24 -17061.577834 -14895.005553 -14655.579725   -455.543379
PG25 -15693.007896 -11635.164632  17748.170907    495.508141
PG26  -6204.372060  20177.666997  15695.962194    -78.795945
PG27  -8197.736596  20882.186773 -14182.680463    -31.967441
PG28 -16763.482941   8611.508391  18707.771590   -553.032376
PG29 -19211.446266  -1214.202743  18307.086778   -540.412960
PG30  22715.345537  -3008.871706 -13501.041650   -222.707073
PG31  -8886.595054  12830.693732  21276.524279   -216.190089
PG32 -20389.050048  16717.174721  -1875.642703   -527.482771
PR01  -4494.004340  21915.519972  12272.609205    113.759760
PR02   6148.381273  10409.436743  22500.815790    -37.726473
PR03  14418.597992  -7273.455983  19818.611581    116.314152
PR04  14488.124506 -19985.338457   6497.842580    275.910119
PR05   6982.576376 -22261.347437 -10325.612928    144.900794
PR07 -14429.756399   7485.648667 -19592.350902    100.244208
PR08 -14178.565022  20278.042996  -6056.115541     -6.214162
PR09 -15977.617558 -19096.519509   5352.358875    236.326995
PR11  -7439.984916   8559.434368  22854.545683     -6.705068
PR12   6413.889124  21405.639046  12306.405091     50.459553
PR14  15333.322309   6562.630359 -19302.923872     27.712316
PR15   6381.778182 -10219.349168 -22471.196834     71.472487
PR16  -6445.582220 -21293.996816 -12444.045881     33.068049
PR17  25477.831992   -729.795103    261.393986    163.713798
PR18  18919.614727  -7258.579706  15546.134999    185.601503
PR19   5115.205104 -10135.442945  22844.982160    -39.624228
PR20 -17312.324082  -7992.555264  16929.408054   -125.481297
PR21 -25492.777707   -161.913443   1157.967348   -174.340970
PR22 -18032.749904   7585.546062 -16331.720290    -59.362948
PR24  18126.410361   7272.754110 -16381.826229    -91.269812
PR26 -14566.379031  19311.882209  -8104.004331   -131.055375
*  2025 02 06  1 15  0.00000000
PG01  18057.716447  15253.334777 -12120.537527    102.125779
PG02  17745.335589  13216.271352 -14526.719306   -250.010646
PG03  12094.318741  21791.176733   9182.967955    658.985043
PG04  10772.233312  10574.158506  21877.096919    522.982475
PG05  -5299.024226 -25602.230248   4302.368991   -201.140662
PG06  17278.971459  -7906.364187  18685.175398   -168.568076
PG07  25905.293432   6879.521071    171.017875    -13.569690
PG08   1672.033316  18400.616129 -19050.445216    475.019997
PG09  17765.492114   1122.063555  19644.672561    556.556625
PG10 -12015.789112   9590.141927 -21369.191378   -306.938382
PG11   5584.782065 -14083.043132  21853.550198   -748.789209
PG12  -9797.124333 -23593.962542   7053.617813   -568.613624
PG13   8857.790154 -19816.052044 -15371.424368    695.645059
PG14  14549.142822  -5732.369836 -21408.236559    593.426743
PG15  -4506.305120 -18129.722953 -19355.238789    260.157803
PG16  -1728.636524  24636.509334   8784.207433    -59.967404
PG17  22124.275574 -11699.639992  -8795.823276    439.620719
PG18 -25996.910809  -5239.556217  -2934.987462   -654.607561
PG19  20184.011962 -16879.201403    318.728483    594.744033
PG20   2099.550276 -21342.236500  15838.413651    366.513505
PG21  11563.519786  15074.424799 -18635.272338    101.881627
PG22  11057.914216 -14349.862553 -19148.268665    -95.768847
PG23 -16021.247398  -6368.139105 -20224.331943    418.090604
PG24 -15351.140244 -14768.670886 -16574.539141   -455.539130
PG25 -16028.810300 -13604.005602  16022.013410    495.507528
PG26  -7050.592450  18403.836792  17438.442454    -78.810715
PG27  -9407.590856  21733.549211 -11879.481205    -31.966876
PG28 -18708.798328   7950.276950  17087.333727   -553.040277
PG29 -17592.476446  -2676.266644  19710.205963   -540.409776
PG30  24020.127023  -2364.348487 -11228.886143   -222.699245
PG31 -11204.602941  12037.597206  20675.684119   -216.189290
PG32 -20278.778635  16248.204683  -4716.996434   -527.475896
PR01  -4930.332318  23188.339082   9438.740829    113.760940
PR02   4963.719720  12843.393362  21506.073661    -37.726379
PR03  13222.682970  -5049.433809  21288.164078    116.314803
PR04  13883.492051 -19188.957311   9526.577646    275.911592
PR05   7329.556062 -23311.855037  -7342.166834    144.901225
PR07 -13235.270125   5260.889521 -21102.072059    100.244793
PR08 -13616.509601  19501.536458  -9101.312860     -6.214082
PR09 -16316.559162 -19425.941140   2206.793814    236.329001
PR11  -9022.812255   6212.974418  23040.587735     -6.708253
PR12   5567.520158  19955.967801  14888.236981     50.459953
PR14  16671.303609   8389.622589 -17393.778078     27.712355
PR15   7929.210428  -7882.804933 -22915.468743     71.472123
PR16  -5595.668063 -19820.547690 -15024.427754     33.068229
PR17  25299.203434   -903.161939  -2965.522125    163.716531
PR18  20669.203813  -7496.769604  12997.819158    185.603210
PR19   7885.069766 -10223.498136  22002.145632    -39.625701
PR20 -15092.081805  -7877.413436  18988.233609   -125.481861
PR21 -25142.964439     19.364563   4368.859691   -174.343948
PR22 -19901.826351   7736.250634 -13914.641233    -59.364477
PR24  15969.239190   7305.996520 -18476.330853    -91.271357
PR26 -13904.505013  18317.228989 -11034.869678   -131.055035
EOF
